start=new Date('2022-06-24T00:00:00.000Z').valueOf();
sats=[{"GP_ID":"206688433","ARG_OF_PERICENTER":"21.4277","OBJECT_ID":"2022-052AL","SITE":"AFETR","MEAN_MOTION":"15.73168430","LAUNCH_DATE":"2022-05-14","EPHEMERIS_TYPE":"0","CENTER_NAME":"EARTH","ELEMENT_SET_NO":"999","TLE_LINE2":"2 52632  53.2130 242.8944 0002655  21.4277  33.8296 15.73168430  1301","DECAY_DATE":null,"TLE_LINE1":"1 52632U 22052AL  22174.58334491  .00071427  00000-0  50965-3 0  9991","OBJECT_NAME":"STARLINK-3995","MEAN_ELEMENT_THEORY":"SGP4","RCS_SIZE":"LARGE","EPOCH":"2022-06-23T14:00:01.000224","PERIOD":"91.535","INCLINATION":"53.2130","RA_OF_ASC_NODE":"242.8944","MEAN_MOTION_DOT":"0.00071427","APOAPSIS":"351.636","PERIAPSIS":"348.064","MEAN_MOTION_DDOT":"0.0000000000000","MEAN_ANOMALY":"33.8296","OBJECT_TYPE":"PAYLOAD","FILE":"3500539","REV_AT_EPOCH":"130","BSTAR":"0.00050965000000","CLASSIFICATION_TYPE":"U","COUNTRY_CODE":"US","TIME_SYSTEM":"UTC","ECCENTRICITY":"0.00026550","NORAD_CAT_ID":"52632","SEMIMAJOR_AXIS":"6727.985","REF_FRAME":"TEME"},{"APOAPSIS":"351.567","PERIAPSIS":"348.003","MEAN_MOTION_DDOT":"0.0000000000000","MEAN_ANOMALY":"19.7755","OBJECT_TYPE":"PAYLOAD","REV_AT_EPOCH":"668","BSTAR":"0.00005262400000","FILE":"3500582","COUNTRY_CODE":"US","CLASSIFICATION_TYPE":"U","TIME_SYSTEM":"UTC","REF_FRAME":"TEME","SEMIMAJOR_AXIS":"6727.920","ECCENTRICITY":"0.00026490","NORAD_CAT_ID":"52633","MEAN_MOTION":"15.73191291","SITE":"AFETR","OBJECT_ID":"2022-052AM","GP_ID":"206689490","ARG_OF_PERICENTER":"16.3640","EPHEMERIS_TYPE":"0","CENTER_NAME":"EARTH","ELEMENT_SET_NO":"999","LAUNCH_DATE":"2022-05-14","TLE_LINE2":"2 52633  53.2139 241.6464 0002649  16.3640  19.7755 15.73191291  6685","TLE_LINE1":"1 52633U 22052AM  22174.83334491  .00006768  00000-0  52624-4 0  9991","OBJECT_NAME":"STARLINK-3994","DECAY_DATE":null,"EPOCH":"2022-06-23T20:00:01.000224","RCS_SIZE":"LARGE","MEAN_ELEMENT_THEORY":"SGP4","RA_OF_ASC_NODE":"241.6464","PERIOD":"91.534","INCLINATION":"53.2139","MEAN_MOTION_DOT":"0.00006768"},{"OBJECT_TYPE":"PAYLOAD","MEAN_ANOMALY":"13.8554","APOAPSIS":"351.566","PERIAPSIS":"347.986","MEAN_MOTION_DDOT":"0.0000000000000","COUNTRY_CODE":"US","CLASSIFICATION_TYPE":"U","REV_AT_EPOCH":"667","BSTAR":"0.00008317900000","FILE":"3500582","SEMIMAJOR_AXIS":"6727.911","REF_FRAME":"TEME","NORAD_CAT_ID":"52634","ECCENTRICITY":"0.00026610","TIME_SYSTEM":"UTC","CENTER_NAME":"EARTH","EPHEMERIS_TYPE":"0","ELEMENT_SET_NO":"999","LAUNCH_DATE":"2022-05-14","SITE":"AFETR","MEAN_MOTION":"15.73194450","GP_ID":"206688994","ARG_OF_PERICENTER":"19.9524","OBJECT_ID":"2022-052AN","TLE_LINE1":"1 52634U 22052AN  22174.83334491  .00011066  00000-0  83179-4 0  9998","OBJECT_NAME":"STARLINK-3974","DECAY_DATE":null,"TLE_LINE2":"2 52634  53.2124 241.6517 0002661  19.9524  13.8554 15.73194450  6674","RA_OF_ASC_NODE":"241.6517","PERIOD":"91.534","INCLINATION":"53.2124","RCS_SIZE":"LARGE","EPOCH":"2022-06-23T20:00:01.000224","MEAN_ELEMENT_THEORY":"SGP4","MEAN_MOTION_DOT":"0.00011066"},{"CLASSIFICATION_TYPE":"U","COUNTRY_CODE":"US","FILE":"3500642","BSTAR":"-0.00055970000000","REV_AT_EPOCH":"668","OBJECT_TYPE":"PAYLOAD","MEAN_ANOMALY":"22.8002","PERIAPSIS":"347.935","MEAN_MOTION_DDOT":"0.0000000000000","APOAPSIS":"351.393","NORAD_CAT_ID":"52635","ECCENTRICITY":"0.00025700","REF_FRAME":"TEME","SEMIMAJOR_AXIS":"6727.799","TIME_SYSTEM":"UTC","DECAY_DATE":null,"OBJECT_NAME":"STARLINK-3978","TLE_LINE1":"1 52635U 22052AP  22174.83334491 -.00078571  00000-0 -55970-3 0  9992","TLE_LINE2":"2 52635  53.2140 241.6444 0002570  14.5225  22.8002 15.73233808  6680","LAUNCH_DATE":"2022-05-14","ELEMENT_SET_NO":"999","EPHEMERIS_TYPE":"0","CENTER_NAME":"EARTH","GP_ID":"206690832","ARG_OF_PERICENTER":"14.5225","OBJECT_ID":"2022-052AP","SITE":"AFETR","MEAN_MOTION":"15.73233808","MEAN_MOTION_DOT":"-0.00078571","INCLINATION":"53.2140","PERIOD":"91.531","RA_OF_ASC_NODE":"241.6444","MEAN_ELEMENT_THEORY":"SGP4","EPOCH":"2022-06-23T20:00:01.000224","RCS_SIZE":"LARGE"},{"ELEMENT_SET_NO":"999","CENTER_NAME":"EARTH","EPHEMERIS_TYPE":"0","LAUNCH_DATE":"2022-05-14","SITE":"AFETR","MEAN_MOTION":"15.73158169","GP_ID":"206688087","ARG_OF_PERICENTER":"19.3828","OBJECT_ID":"2022-052AQ","OBJECT_NAME":"STARLINK-3967","TLE_LINE1":"1 52636U 22052AQ  22174.58334491  .00063879  00000-0  45688-3 0  9993","DECAY_DATE":null,"TLE_LINE2":"2 52636  53.2129 242.8876 0002418  19.3828  38.9071 15.73158169  1307","RA_OF_ASC_NODE":"242.8876","INCLINATION":"53.2129","PERIOD":"91.536","EPOCH":"2022-06-23T14:00:01.000224","RCS_SIZE":"LARGE","MEAN_ELEMENT_THEORY":"SGP4","MEAN_MOTION_DOT":"0.00063879","OBJECT_TYPE":"PAYLOAD","MEAN_ANOMALY":"38.9071","PERIAPSIS":"348.253","MEAN_MOTION_DDOT":"0.0000000000000","APOAPSIS":"351.506","COUNTRY_CODE":"US","CLASSIFICATION_TYPE":"U","BSTAR":"0.00045688000000","REV_AT_EPOCH":"130","FILE":"3500539","REF_FRAME":"TEME","SEMIMAJOR_AXIS":"6728.014","ECCENTRICITY":"0.00024180","NORAD_CAT_ID":"52636","TIME_SYSTEM":"UTC"},{"ELEMENT_SET_NO":"999","EPHEMERIS_TYPE":"0","CENTER_NAME":"EARTH","LAUNCH_DATE":"2022-05-14","SITE":"AFETR","MEAN_MOTION":"15.73227700","GP_ID":"206690511","OBJECT_ID":"2022-052AR","ARG_OF_PERICENTER":"17.2655","OBJECT_NAME":"STARLINK-3961","TLE_LINE1":"1 52637U 22052AR  22174.83334491 -.00084563  00000-0 -60331-3 0  9999","DECAY_DATE":null,"TLE_LINE2":"2 52637  53.2138 241.6422 0002587  17.2655  20.6745 15.73227700  6684","RA_OF_ASC_NODE":"241.6422","INCLINATION":"53.2138","PERIOD":"91.532","EPOCH":"2022-06-23T20:00:01.000224","RCS_SIZE":"LARGE","MEAN_ELEMENT_THEORY":"SGP4","MEAN_MOTION_DOT":"-0.00084563","OBJECT_TYPE":"PAYLOAD","MEAN_ANOMALY":"20.6745","PERIAPSIS":"347.941","MEAN_MOTION_DDOT":"0.0000000000000","APOAPSIS":"351.422","COUNTRY_CODE":"US","CLASSIFICATION_TYPE":"U","BSTAR":"-0.00060331000000","REV_AT_EPOCH":"668","FILE":"3500657","SEMIMAJOR_AXIS":"6727.816","REF_FRAME":"TEME","ECCENTRICITY":"0.00025870","NORAD_CAT_ID":"52637","TIME_SYSTEM":"UTC"},{"MEAN_MOTION_DOT":"0.00008432","RA_OF_ASC_NODE":"241.6479","INCLINATION":"53.2142","PERIOD":"91.533","EPOCH":"2022-06-23T20:00:01.000224","RCS_SIZE":"LARGE","MEAN_ELEMENT_THEORY":"SGP4","OBJECT_NAME":"STARLINK-3941","TLE_LINE1":"1 52638U 22052AS  22174.83334491  .00008432  00000-0  64419-4 0  9991","DECAY_DATE":null,"TLE_LINE2":"2 52638  53.2142 241.6479 0002449  24.2685  11.2697 15.73206756  6680","ELEMENT_SET_NO":"999","CENTER_NAME":"EARTH","EPHEMERIS_TYPE":"0","LAUNCH_DATE":"2022-05-14","MEAN_MOTION":"15.73206756","SITE":"AFETR","GP_ID":"206690841","OBJECT_ID":"2022-052AS","ARG_OF_PERICENTER":"24.2685","REF_FRAME":"TEME","SEMIMAJOR_AXIS":"6727.876","ECCENTRICITY":"0.00024490","NORAD_CAT_ID":"52638","TIME_SYSTEM":"UTC","COUNTRY_CODE":"US","CLASSIFICATION_TYPE":"U","BSTAR":"0.00006441900000","REV_AT_EPOCH":"668","FILE":"3500644","OBJECT_TYPE":"PAYLOAD","MEAN_ANOMALY":"11.2697","PERIAPSIS":"348.093","MEAN_MOTION_DDOT":"0.0000000000000","APOAPSIS":"351.389"},{"FILE":"3500539","REV_AT_EPOCH":"130","BSTAR":"-0.00030305000000","CLASSIFICATION_TYPE":"U","COUNTRY_CODE":"US","APOAPSIS":"351.426","PERIAPSIS":"347.864","MEAN_MOTION_DDOT":"0.0000000000000","MEAN_ANOMALY":"43.2142","OBJECT_TYPE":"PAYLOAD","TIME_SYSTEM":"UTC","ECCENTRICITY":"0.00026470","NORAD_CAT_ID":"52639","REF_FRAME":"TEME","SEMIMAJOR_AXIS":"6727.780","TLE_LINE2":"2 52639  53.2144 242.8770 0002647  19.7821  43.2142 15.73240399  1306","DECAY_DATE":null,"TLE_LINE1":"1 52639U 22052AT  22174.58334491 -.00043018  00000-0 -30305-3 0  9991","OBJECT_NAME":"STARLINK-3968","GP_ID":"206688222","OBJECT_ID":"2022-052AT","ARG_OF_PERICENTER":"19.7821","SITE":"AFETR","MEAN_MOTION":"15.73240399","LAUNCH_DATE":"2022-05-14","EPHEMERIS_TYPE":"0","CENTER_NAME":"EARTH","ELEMENT_SET_NO":"999","MEAN_MOTION_DOT":"-0.00043018","MEAN_ELEMENT_THEORY":"SGP4","RCS_SIZE":"LARGE","EPOCH":"2022-06-23T14:00:01.000224","PERIOD":"91.531","INCLINATION":"53.2144","RA_OF_ASC_NODE":"242.8770"},{"APOAPSIS":"351.634","PERIAPSIS":"347.879","MEAN_MOTION_DDOT":"0.0000000000000","MEAN_ANOMALY":"42.6064","OBJECT_TYPE":"PAYLOAD","FILE":"3500539","REV_AT_EPOCH":"130","BSTAR":"-0.00025121000000","CLASSIFICATION_TYPE":"U","COUNTRY_CODE":"US","TIME_SYSTEM":"UTC","NORAD_CAT_ID":"52640","ECCENTRICITY":"0.00027910","SEMIMAJOR_AXIS":"6727.891","REF_FRAME":"TEME","GP_ID":"206688434","ARG_OF_PERICENTER":"17.4506","OBJECT_ID":"2022-052AU","MEAN_MOTION":"15.73201303","SITE":"AFETR","LAUNCH_DATE":"2022-05-14","EPHEMERIS_TYPE":"0","CENTER_NAME":"EARTH","ELEMENT_SET_NO":"999","TLE_LINE2":"2 52640  53.2147 242.8836 0002791  17.4506  42.6064 15.73201303  1307","DECAY_DATE":null,"TLE_LINE1":"1 52640U 22052AU  22174.58334491 -.00035738  00000-0 -25121-3 0  9993","OBJECT_NAME":"STARLINK-3977","MEAN_ELEMENT_THEORY":"SGP4","EPOCH":"2022-06-23T14:00:01.000224","RCS_SIZE":"LARGE","PERIOD":"91.533","INCLINATION":"53.2147","RA_OF_ASC_NODE":"242.8836","MEAN_MOTION_DOT":"-0.00035738"},{"DECAY_DATE":null,"OBJECT_NAME":"STARLINK-3991","TLE_LINE1":"1 52641U 22052AV  22174.58334491 -.00028230  00000-0 -19710-3 0  9990","TLE_LINE2":"2 52641  53.2145 242.8753 0002546  25.7179  37.8767 15.73229040  6646","LAUNCH_DATE":"2022-05-14","ELEMENT_SET_NO":"999","CENTER_NAME":"EARTH","EPHEMERIS_TYPE":"0","OBJECT_ID":"2022-052AV","GP_ID":"206661829","ARG_OF_PERICENTER":"25.7179","SITE":"AFETR","MEAN_MOTION":"15.73229040","MEAN_MOTION_DOT":"-0.00028230","INCLINATION":"53.2145","PERIOD":"91.531","RA_OF_ASC_NODE":"242.8753","MEAN_ELEMENT_THEORY":"SGP4","RCS_SIZE":"LARGE","EPOCH":"2022-06-23T14:00:01.000224","CLASSIFICATION_TYPE":"U","COUNTRY_CODE":"US","FILE":"3500493","BSTAR":"-0.00019710000000","REV_AT_EPOCH":"664","OBJECT_TYPE":"PAYLOAD","MEAN_ANOMALY":"37.8767","PERIAPSIS":"347.964","MEAN_MOTION_DDOT":"0.0000000000000","APOAPSIS":"351.390","ECCENTRICITY":"0.00025460","NORAD_CAT_ID":"52641","REF_FRAME":"TEME","SEMIMAJOR_AXIS":"6727.812","TIME_SYSTEM":"UTC"}];
